H1 CPF  1  DLR 2022 11 22 13  8262 technosat            
H2  1704205 6203    42829 2022 11 22 00 00 00 2022 11 29 00 00 00    60 1 1  0 0 0
H9
10 0 59911  14400.000000  0      -2397663.210      -1540300.566      -6364566.222
10 0 59911  14460.000000  0      -2145257.153      -1195708.966      -6527341.351
10 0 59911  14520.000000  0      -1880834.365       -848368.382      -6662565.641
10 0 59911  14580.000000  0      -1605489.656       -499836.441      -6769683.202
10 0 59911  14640.000000  0      -1320375.629       -151664.256      -6848255.731
10 0 59911  14700.000000  0      -1026697.908        194610.289      -6897964.037
10 0 59911  14760.000000  0       -725710.056        537469.161      -6918609.147
10 0 59911  14820.000000  0       -418708.289        875420.697      -6910112.911
10 0 59911  14880.000000  0       -107026.013       1207005.913      -6872518.076
10 0 59911  14940.000000  0        207971.765       1530804.524      -6805988.047
10 0 59911  15000.000000  0        524894.258       1845440.903      -6710806.332
10 0 59911  15060.000000  0        842331.022       2149589.862      -6587375.381
10 0 59911  15120.000000  0       1158858.108       2441982.056      -6436214.892
10 0 59911  15180.000000  0       1473044.254       2721409.202      -6257959.802
10 0 59911  15240.000000  0       1783457.243       2986729.055      -6053357.815
10 0 59911  15300.000000  0       2088670.328       3236869.998      -5823266.439
10 0 59911  15360.000000  0       2387268.665       3470835.307      -5568649.651
10 0 59911  15420.000000  0       2677855.761       3687707.155      -5290574.176
10 0 59911  15480.000000  0       2959059.944       3886650.296      -4990205.332
10 0 59911  15540.000000  0       3229540.819       4066915.386      -4668802.436
10 0 59911  15600.000000  0       3487995.662       4227841.920      -4327713.803
10 0 59911  15660.000000  0       3733165.688       4368860.757      -3968371.339
10 0 59911  15720.000000  0       3963842.249       4489496.270      -3592284.791
10 0 59911  15780.000000  0       4178872.871       4589368.039      -3201035.542
10 0 59911  15840.000000  0       4377167.026       4668192.089      -2796270.074
10 0 59911  15900.000000  0       4557701.664       4725781.671      -2379693.180
10 0 59911  15960.000000  0       4719526.544       4762047.666      -1953060.934
10 0 59911  16020.000000  0       4861769.346       4776998.525      -1518173.294
10 0 59911  16080.000000  0       4983640.367       4770739.650      -1076866.419
10 0 59911  16140.000000  0       5084436.807       4743472.349       -631004.880
10 0 59911  16200.000000  0       5163546.685       4695492.343       -182473.690
10 0 59911  16260.000000  0       5220452.339       4627187.832        266829.730
10 0 59911  16320.000000  0       5254733.530       4539037.157        715003.667
10 0 59911  16380.000000  0       5266070.138       4431606.003       1160150.295
10 0 59911  16440.000000  0       5254244.388       4305544.189       1600383.856
10 0 59911  16500.000000  0       5219142.605       4161582.051       2033838.845
10 0 59911  16560.000000  0       5160756.388       4000526.396       2458678.131
10 0 59911  16620.000000  0       5079183.253       3823256.126       2873100.875
10 0 59911  16680.000000  0       4974626.787       3630717.553       3275350.276
10 0 59911  16740.000000  0       4847396.300       3423919.418       3663721.116
10 0 59911  16800.000000  0       4697905.953       3203927.639       4036567.062
10 0 59911  16860.000000  0       4526673.405       2971859.773       4392307.620
10 0 59911  16920.000000  0       4334318.090       2728879.371       4729434.743
10 0 59911  16980.000000  0       4121558.936       2476190.207       5046519.390
10 0 59911  17040.000000  0       3889211.378       2215030.226       5342217.534
10 0 59911  17100.000000  0       3638184.147       1946665.502       5615275.682
10 0 59911  17160.000000  0       3369475.626       1672384.061       5864536.107
10 0 59911  17220.000000  0       3084169.785       1393489.650       6088941.603
10 0 59911  17280.000000  0       2783431.717       1111295.515       6287539.788
10 0 59911  17340.000000  0       2468502.846        827118.258       6459486.954
10 0 59911  17400.000000  0       2140695.797        542271.776       6604051.534
10 0 59911  17460.000000  0       1801388.934        258061.253       6720617.186
10 0 59911  17520.000000  0       1452020.565        -24222.780       6808685.407
10 0 59911  17580.000000  0       1094082.828       -303310.313       6867877.684
10 0 59911  17640.000000  0        729115.304       -577957.629       6897937.057
10 0 59911  17700.000000  0        358698.448       -846952.810       6898729.210
10 0 59911  17760.000000  0        -15553.244      -1109121.086       6870243.167
10 0 59911  17820.000000  0       -391998.240      -1363330.006       6812591.425
10 0 59911  17880.000000  0       -768975.156      -1608494.383       6726009.625
10 0 59911  17940.000000  0      -1144810.080      -1843580.969       6610855.666
10 0 59911  18000.000000  0      -1517823.921      -2067612.835       6467608.359
10 0 59911  18060.000000  0      -1886339.852      -2279673.455       6296865.698
10 0 59911  18120.000000  0      -2248690.839      -2478910.542       6099342.682
10 0 59911  18180.000000  0      -2603227.266      -2664539.651       5875868.707
10 0 59911  18240.000000  0      -2948324.676      -2835847.483       5627384.378
10 0 59911  18300.000000  0      -3282391.478      -2992194.788       5354937.700
10 0 59911  18360.000000  0      -3603876.460      -3133018.869       5059679.783
10 0 59911  18420.000000  0      -3911276.183      -3257835.753       4742860.127
10 0 59911  18480.000000  0      -4203142.241      -3366241.947       4405821.453
10 0 59911  18540.000000  0      -4478088.333      -3457915.805       4049994.115
10 0 59911  18600.000000  0      -4734797.090      -3532618.490       3676890.073
10 0 59911  18660.000000  0      -4972026.635      -3590194.526       3288096.523
10 0 59911  18720.000000  0      -5188616.907      -3630571.964       2885269.141
10 0 59911  18780.000000  0      -5383495.638      -3653762.147       2470124.915
10 0 59911  18840.000000  0      -5555683.921      -3659859.012       2044434.607
10 0 59911  18900.000000  0      -5704301.305      -3649037.957       1610014.959
10 0 59911  18960.000000  0      -5828570.454      -3621554.270       1168720.663
10 0 59911  19020.000000  0      -5927821.314      -3577741.139        722436.150
10 0 59911  19080.000000  0      -6001494.748      -3518007.286        273067.215
10 0 59911  19140.000000  0      -6049145.649      -3442834.234       -177467.460
10 0 59911  19200.000000  0      -6070445.493      -3352773.188       -627244.903
10 0 59911  19260.000000  0      -6065184.273      -3248441.537      -1074346.483
10 0 59911  19320.000000  0      -6033271.772      -3130519.016      -1516866.485
10 0 59911  19380.000000  0      -5974738.215      -2999743.562      -1952920.527
10 0 59911  19440.000000  0      -5889734.369      -2856906.946      -2380653.804
10 0 59911  19500.000000  0      -5778531.083      -2702850.162      -2798249.207
10 0 59911  19560.000000  0      -5641518.182      -2538458.611      -3203935.234
10 0 59911  19620.000000  0      -5479202.793      -2364657.095      -3595993.594
10 0 59911  19680.000000  0      -5292207.119      -2182404.669      -3972766.516
10 0 59911  19740.000000  0      -5081265.688      -1992689.406      -4332663.730
10 0 59911  19800.000000  0      -4847222.083      -1796523.091      -4674169.101
10 0 59911  19860.000000  0      -4591025.177      -1594935.855      -4995846.902
10 0 59911  19920.000000  0      -4313724.862      -1388970.774      -5296347.660
10 0 59911  19980.000000  0      -4016467.347      -1179678.491      -5574413.529
10 0 59911  20040.000000  0      -3700490.074       -968111.915      -5828883.228
10 0 59911  20100.000000  0      -3367116.264       -755320.974      -6058696.543
10 0 59911  20160.000000  0      -3017749.120       -542347.467      -6262898.356
10 0 59911  20220.000000  0      -2653865.728       -330220.068      -6440642.227
10 0 59911  20280.000000  0      -2277010.644       -119949.476      -6591193.544
10 0 59911  20340.000000  0      -1888789.185         87476.279      -6713932.121
10 0 59911  20400.000000  0      -1490860.610        291096.285      -6808354.333
10 0 59911  20460.000000  0      -1084931.110        489981.059      -6874074.908
10 0 59911  20520.000000  0       -672746.567        683236.703      -6910828.246
10 0 59911  20580.000000  0       -256085.166        870008.807      -6918469.209
10 0 59911  20640.000000  0        163250.055       1049486.051      -6896973.499
10 0 59911  20700.000000  0        583438.763       1220903.551      -6846437.749
10 0 59911  20760.000000  0       1002651.140       1383546.059      -6767079.193
10 0 59911  20820.000000  0       1419055.758       1536750.906      -6659234.653
10 0 59911  20880.000000  0       1830827.313       1679910.620      -6523359.130
10 0 59911  20940.000000  0       2236154.496       1812475.276      -6360024.085
10 0 59911  21000.000000  0       2633247.884       1933954.560      -6169915.132
10 0 59911  21060.000000  0       3020347.648       2043919.511      -5953829.292
10 0 59911  21120.000000  0       3395731.190       2142003.974      -5712671.936
10 0 59911  21180.000000  0       3757720.748       2227905.773      -5447453.313
10 0 59911  21240.000000  0       4104690.907       2301387.580      -5159284.634
10 0 59911  21300.000000  0       4435075.967       2362277.492      -4849373.703
10 0 59911  21360.000000  0       4747377.090       2410469.247      -4519020.089
10 0 59911  21420.000000  0       5040169.179       2445922.130      -4169609.938
10 0 59911  21480.000000  0       5312107.521       2468660.580      -3802610.396
10 0 59911  21540.000000  0       5561934.070       2478773.444      -3419563.674
99
